H1 CPF 01  gfz 2022 12 30 13  8642 terrasarx 
H2 0702601  6201 31698    2022 12 30 12 59 42 2023 01 04 00 00 42   120 1 1  0 0 0
H9
10 0 59945  56142.000000  0   -1910926.112  -2412198.083   6152530.457
10 0 59945  56262.000000  0   -2610046.781  -2815725.098   5709274.509
10 0 59945  56382.000000  0   -3270116.848  -3158186.539   5165608.587
10 0 59945  56502.000000  0   -3878472.930  -3434375.162   4531059.687
10 0 59945  56622.000000  0   -4423269.489  -3640453.160   3816762.645
10 0 59945  56742.000000  0   -4893714.444  -3774006.612   3035267.921
10 0 59945  56862.000000  0   -5280288.949  -3834071.812   2200322.925
10 0 59945  56982.000000  0   -5574946.615  -3821132.829   1326627.871
10 0 59945  57102.000000  0   -5771284.942  -3737088.209    429571.114
10 0 59945  57222.000000  0   -5864685.444  -3585188.250   -475049.246
10 0 59945  57342.000000  0   -5852418.785  -3369944.876  -1371312.700
10 0 59945  57462.000000  0   -5733710.766  -3097015.074  -2243466.718
10 0 59945  57582.000000  0   -5509767.478  -2773061.654  -3076210.572
10 0 59945  57702.000000  0   -5183761.499  -2405596.337  -3854967.888
10 0 59945  57822.000000  0   -4760779.241  -2002808.490  -4566142.361
10 0 59945  57942.000000  0   -4247731.931  -1573384.646  -5197352.255
10 0 59945  58062.000000  0   -3653232.380  -1126322.583  -5737640.039
10 0 59945  58182.000000  0   -2987441.049   -670744.189  -6177652.983
10 0 59945  58302.000000  0   -2261886.010   -215711.780  -6509793.695
10 0 59945  58422.000000  0   -1489259.614    229948.472  -6728339.751
10 0 59945  58542.000000  0    -683196.720    657812.634  -6829530.923
10 0 59945  58662.000000  0     141961.382   1060013.871  -6811626.677
10 0 59945  58782.000000  0     971415.205   1429382.789  -6674932.547
10 0 59945  58902.000000  0    1790166.164   1759572.016  -6421798.181
10 0 59945  59022.000000  0    2583282.629   2045164.365  -6056581.260
10 0 59945  59142.000000  0    3336168.333   2281761.259  -5585579.866
10 0 59945  59262.000000  0    4034827.901   2466050.604  -5016933.828
10 0 59945  59382.000000  0    4666128.460   2595853.960  -4360496.417
10 0 59945  59502.000000  0    5218051.704   2670151.206  -3627673.756
10 0 59945  59622.000000  0    5679929.201   2689081.754  -2831234.915
10 0 59945  59742.000000  0    6042658.311   2653922.666  -1985096.392
10 0 59945  59862.000000  0    6298892.348   2567042.808  -1104079.746
10 0 59945  59982.000000  0    6443197.958   2431833.626   -203650.117
10 0 59945  60102.000000  0    6472177.109   2252618.091    700361.460
10 0 59945  60222.000000  0    6384546.936   2034539.071   1592043.294
10 0 59945  60342.000000  0    6181180.720   1783432.640   2455690.749
10 0 59945  60462.000000  0    5865103.836   1505686.189   3276092.751
10 0 59945  60582.000000  0    5441445.839   1208086.554   4038807.070
10 0 59945  60702.000000  0    4917349.416    897661.946   4730419.583
10 0 59945  60822.000000  0    4301841.447    581522.582   5338780.909
10 0 59945  60942.000000  0    3605668.195    266702.383   5853219.684
10 0 59945  61062.000000  0    2841097.222    -39993.732   6264725.451
10 0 59945  61182.000000  0    2021694.624   -332132.467   6566099.531
10 0 59945  61302.000000  0    1162080.521   -603783.808   6752075.761
10 0 59945  61422.000000  0     277664.858   -849639.607   6819408.124
10 0 59945  61542.000000  0    -615630.114  -1065115.948   6766922.667
10 0 59945  61662.000000  0   -1501655.717  -1246438.440   6595535.913
10 0 59945  61782.000000  0   -2364327.348  -1390708.295   6308238.823
10 0 59945  61902.000000  0   -3187914.338  -1495947.885   5910048.179
10 0 59945  62022.000000  0   -3957328.588  -1561126.725   5407926.992
10 0 59945  62142.000000  0   -4658406.288  -1586167.858   4810668.873
10 0 59945  62262.000000  0   -5278175.554  -1571932.855   4128749.029
10 0 59945  62382.000000  0   -5805104.255  -1520185.479   3374143.439
10 0 59945  62502.000000  0   -6229322.606  -1433534.918   2560120.651
10 0 59945  62622.000000  0   -6542818.252  -1315360.803   1701009.271
10 0 59945  62742.000000  0   -6739597.968  -1169720.857    811940.764
10 0 59945  62862.000000  0   -6815807.722  -1001242.721    -91424.797
10 0 59945  62982.000000  0   -6769810.266   -815003.215   -993183.258
10 0 59945  63102.000000  0   -6602217.745   -616398.308  -1877475.601
10 0 59945  63222.000000  0   -6315878.763   -411007.137  -2728773.943
10 0 59945  63342.000000  0   -5915822.691   -204454.599  -3532160.197
10 0 59945  63462.000000  0   -5409159.381     -2273.862  -4273591.433
10 0 59945  63582.000000  0   -4804939.040    190226.618  -4940143.774
10 0 59945  63702.000000  0   -4113978.052    368088.456  -5520232.477
10 0 59945  63822.000000  0   -3348654.022    526817.733  -6003805.178
10 0 59945  63942.000000  0   -2522675.417    662486.004  -6382504.385
10 0 59945  64062.000000  0   -1650832.917    771816.910  -6649799.804
10 0 59945  64182.000000  0    -748734.319    852256.977  -6801090.649
10 0 59945  64302.000000  0     167471.041    902029.580  -6833774.809
10 0 59945  64422.000000  0    1081373.268    920170.756  -6747288.709
10 0 59945  64542.000000  0    1976589.108    906546.969  -6543118.719
10 0 59945  64662.000000  0    2837050.051    861854.866  -6224778.295
10 0 59945  64782.000000  0    3647286.238    787602.737  -5797753.340
10 0 59945  64902.000000  0    4392701.483    686073.261  -5269416.652
10 0 59945  65022.000000  0    5059837.390    560268.617  -4648912.491
10 0 59945  65142.000000  0    5636622.347    413839.097  -3947009.442
10 0 59945  65262.000000  0    6112598.414    250995.418  -3175922.759
10 0 59945  65382.000000  0    6479121.910     76407.069  -2349109.522
10 0 59945  65502.000000  0    6729534.161   -104911.743  -1481037.632
10 0 59945  65622.000000  0    6859294.752   -287725.793   -586931.404
10 0 59945  65742.000000  0    6866073.968   -466708.727    317499.088
10 0 59945  65862.000000  0    6749802.834   -636576.988   1216340.530
10 0 59945  65982.000000  0    6512677.390   -792223.782   2093764.777
10 0 59945  66102.000000  0    6159117.522   -928849.482   2934317.491
10 0 59945  66222.000000  0    5695678.801  -1042085.071   3723198.376
10 0 59945  66342.000000  0    5130924.131  -1128105.295   4446526.793
10 0 59945  66462.000000  0    4475256.115  -1183730.043   5091589.508
10 0 59945  66582.000000  0    3740714.974  -1206509.078   5647063.703
10 0 59945  66702.000000  0    2940748.215  -1194789.609   6103213.029
10 0 59945  66822.000000  0    2089956.565  -1147766.254   6452052.996
10 0 59945  66942.000000  0    1203822.730  -1065511.825   6687485.286
10 0 59945  67062.000000  0     298425.524   -948988.120   6805399.058
10 0 59945  67182.000000  0    -609853.255   -800036.312   6803737.042
10 0 59945  67302.000000  0   -1504624.173   -621348.094   6682528.116
10 0 59945  67422.000000  0   -2369784.327   -416417.187   6443886.637
10 0 59945  67542.000000  0   -3189805.822   -189472.099   6091978.489
10 0 59945  67662.000000  0   -3950015.676     54608.814   5632954.100
10 0 59945  67782.000000  0   -4636862.673    310398.590   5074847.267
10 0 59945  67902.000000  0   -5238165.360    572037.313   4427440.304
10 0 59945  68022.000000  0   -5743336.688    833360.377   3702097.053
10 0 59945  68142.000000  0   -6143579.157   1088036.801   2911566.024
10 0 59945  68262.000000  0   -6432047.872   1329714.591   2069757.008
10 0 59945  68382.000000  0   -6603976.585   1552169.226   1191493.722
10 0 59945  68502.000000  0   -6656763.951   1749452.352    292246.990
10 0 59945  68622.000000  0   -6590015.251   1916036.559   -612146.580
10 0 59945  68742.000000  0   -6405538.925   2046951.652  -1505772.523
10 0 59945  68862.000000  0   -6107299.474   2137909.922  -2372926.599
10 0 59945  68982.000000  0   -5701327.461   2185417.577  -3198398.603
10 0 59945  69102.000000  0   -5195587.640   2186868.434  -3967744.212
10 0 59945  69222.000000  0   -4599810.941   2140617.577  -4667537.950
10 0 59945  69342.000000  0   -3925295.652   2046034.346  -5285603.462
10 0 59945  69462.000000  0   -3184683.436   1903533.947  -5811217.241
10 0 59945  69582.000000  0   -2391716.402   1714587.449  -6235284.681
10 0 59945  69702.000000  0   -1560978.065   1481709.931  -6550487.165
10 0 59945  69822.000000  0    -707624.289   1208427.177  -6751395.845
10 0 59945  69942.000000  0     152889.151    899221.954  -6834554.693
10 0 59945  70062.000000  0    1005079.123    559461.779  -6798533.344
10 0 59945  70182.000000  0    1833707.649    195307.665  -6643951.339
10 0 59945  70302.000000  0    2624048.749   -186395.044  -6373467.715
10 0 59945  70422.000000  0    3362145.197   -578241.241  -5991740.695
10 0 59945  70542.000000  0    4035052.549   -972405.195  -5505354.656
10 0 59945  70662.000000  0    4631066.089  -1360791.717  -4922717.989
10 0 59945  70782.000000  0    5139929.765  -1735198.766  -4253929.686
10 0 59945  70902.000000  0    5553020.498  -2087486.950  -3510614.686
10 0 59945  71022.000000  0    5863504.651  -2409752.858  -2705730.154
10 0 59945  71142.000000  0    6066462.273  -2694502.755  -1853344.293
10 0 59945  71262.000000  0    6158975.042  -2934822.147   -968391.600
10 0 59945  71382.000000  0    6140176.163  -3124537.120    -66409.240
10 0 59945  71502.000000  0    6011259.581  -3258363.399    836741.112
10 0 59945  71622.000000  0    5775448.811  -3332039.216   1725159.983
10 0 59945  71742.000000  0    5437922.826  -3342437.477   2583200.425
10 0 59945  71862.000000  0    5005702.069  -3287654.629   3395751.428
10 0 59945  71982.000000  0    4487498.926  -3167073.400   4148510.864
10 0 59945  72102.000000  0    3893537.171  -2981398.981   4828240.601
10 0 59945  72222.000000  0    3235343.064  -2732668.757   5423001.988
10 0 59945  72342.000000  0    2525513.420  -2424232.923   5922363.537
10 0 59945  72462.000000  0    1777468.572  -2060708.668   6317579.500
10 0 59945  72582.000000  0    1005194.087  -1647909.313   6601737.397
99
